GLOBALSTAR M075 [+]     
1 37192U 10054E   24102.12528227 -.00000110  00000+0 -36505-4 0  9996
2 37192  51.9960  57.0682 0000556  63.4173 309.3995 12.62272132621816
GLOBALSTAR M073 [+]     
1 37193U 10054F   24102.39768399 -.00000072  00000+0  17872-3 0  9993
2 37193  52.0075 329.7321 0000860  92.3800  79.1893 12.62263543623357
GLOBALSTAR M083 [+]     
1 37739U 11033A   24102.25234716 -.00000075  00000+0  15939-3 0  9998
2 37739  51.9850 279.4951 0000722  83.3238  87.9441 12.62268252592661
GLOBALSTAR M088 [+]     
1 37740U 11033B   24101.55734882 -.00000071  00000+0  18206-3 0  9997
2 37740  51.9723 187.4658 0000484  94.1390 277.9765 12.62266778587764
GLOBALSTAR M091 [+]     
1 37741U 11033C   24101.84315766 -.00000080  00000+0  13430-3 0  9990
2 37741  51.9981 149.3769 0000381  59.2714 112.2988 12.62261427588584
GLOBALSTAR M085 [+]     
1 37742U 11033D   24101.75087141 -.00000108  00000+0 -25519-4 0  9998
2 37742  51.9852 101.0777 0000473  47.2174 124.3047 12.62269480589088
GLOBALSTAR M081 [+]     
1 37743U 11033E   24101.77715784 -.00000105  00000+0 -50724-5 0  9996
2 37743  51.9942 103.5176 0000586  60.8731 110.2800 12.62264049589238
GLOBALSTAR M089 [+]     
1 37744U 11033F   24102.19820490 -.00000111  00000+0 -38964-4 0  9993
2 37744  51.9944  56.5448 0000624 104.1971   0.3389 12.62261724590387
